{"type": "FeatureCollection", "features": [ {"type": "Feature", "properties": {"norad_id": 34400, "name": "COSMOS 2251 DEB", "group": "cosmos-2251-debris", "lat": -25.408759875120676, "lon": 15.397846602890507, "alt_km": 410.73961480816615, "timestamp": "2025-12-12T18:57:44.523362+00:00", "meta": {"OBJECT_NAME": "COSMOS 2251 DEB", "OBJECT_ID": "1993-036QR", "EPOCH": "2025-12-12T02:04:19.041600", "MEAN_MOTION": 15.53062359, "ECCENTRICITY": 0.00052902, "INCLINATION": 73.9661, "RA_OF_ASC_NODE": 24.8071, "ARG_OF_PERICENTER": 267.662, "MEAN_ANOMALY": 92.3989, "EPHEMERIS_TYPE": 0, "CLASSIFICATION_TYPE": "U", "NORAD_CAT_ID": 34400, "ELEMENT_SET_NO": 999, "REV_AT_EPOCH": 89964, "BSTAR": 0.0039903096, "MEAN_MOTION_DOT": 0.00257951, "MEAN_MOTION_DDOT": 0}, "tle": {"line1": "1 34400U 93036QR  25346.08633150  .00257951  00000+0  39903-2 0  9992", "line2": "2 34400  73.9661  24.8071 0005290 267.6620  92.3989 15.53062359899647"}}, "geometry": {"type": "Point", "coordinates": [15.397846602890507, -25.408759875120676]}}, {"type": "Feature", "properties": {"norad_id": 34409, "name": "COSMOS 2251 DEB", "group": "cosmos-2251-debris", "lat": -41.152405010988915, "lon": 141.2031638380622, "alt_km": 758.0660551221654, "timestamp": "2025-12-12T18:57:44.523372+00:00", "meta": {"OBJECT_NAME": "COSMOS 2251 DEB", "OBJECT_ID": "1993-036RA", "EPOCH": "2025-12-11T22:27:13.227264", "MEAN_MOTION": 14.58024093, "ECCENTRICITY": 0.0079805, "INCLINATION": 74.0641, "RA_OF_ASC_NODE": 308.3648, "ARG_OF_PERICENTER": 22.8974, "MEAN_ANOMALY": 37.0595, "EPHEMERIS_TYPE": 0, "CLASSIFICATION_TYPE": "U", "NORAD_CAT_ID": 34409, "ELEMENT_SET_NO": 999, "REV_AT_EPOCH": 89181, "BSTAR": 0.00043693, "MEAN_MOTION_DOT": 2.068e-05, "MEAN_MOTION_DDOT": 0}, "tle": {"line1": "1 34409U 93036RA  25345.93556976  .00002068  00000+0  43693-3 0  9993", "line2": "2 34409  74.0641 308.3648 0079805  22.8974  37.0595 14.58024093891819"}}, "geometry": {"type": "Point", "coordinates": [141.2031638380622, -41.152405010988915]}}, {"type": "Feature", "properties": {"norad_id": 34410, "name": "COSMOS 2251 DEB", "group": "cosmos-2251-debris", "lat": -73.47405368073281, "lon": -178.0785647348877, "alt_km": 530.5319418108111, "timestamp": "2025-12-12T18:57:44.523383+00:00", "meta": {"OBJECT_NAME": "COSMOS 2251 DEB", "OBJECT_ID": "1993-036RB", "EPOCH": "2025-12-12T05:47:38.706144", "MEAN_MOTION": 15.18859783, "ECCENTRICITY": 0.00214784, "INCLINATION": 73.7363, "RA_OF_ASC_NODE": 262.8024, "ARG_OF_PERICENTER": 104.6964, "MEAN_ANOMALY": 49.2576, "EPHEMERIS_TYPE": 0, "CLASSIFICATION_TYPE": "U", "NORAD_CAT_ID": 34410, "ELEMENT_SET_NO": 999, "REV_AT_EPOCH": 89766, "BSTAR": 0.0032816974, "MEAN_MOTION_DOT": 0.00069449, "MEAN_MOTION_DDOT": 0}, "tle": {"line1": "1 34410U 93036RB  25346.24142021  .00069449  00000+0  32817-2 0  9993", "line2": "2 34410  73.7363 262.8024 0021478 104.6964  49.2576 15.18859783897663"}}, "geometry": {"type": "Point", "coordinates": [-178.0785647348877, -73.47405368073281]}}, {"type": "Feature", "properties": {"norad_id": 34412, "name": "COSMOS 2251 DEB", "group": "cosmos-2251-debris", "lat": 65.76472005515504, "lon": 4.274891876248092, "alt_km": 597.9458048239412, "timestamp": "2025-12-12T18:57:44.523393+00:00", "meta": {"OBJECT_NAME": "COSMOS 2251 DEB", "OBJECT_ID": "1993-036RD", "EPOCH": "2025-12-12T07:01:45.991488", "MEAN_MOTION": 14.47125156, "ECCENTRICITY": 0.01871512, "INCLINATION": 73.9485, "RA_OF_ASC_NODE": 325.4499, "ARG_OF_PERICENTER": 60.6296, "MEAN_ANOMALY": 301.3406, "EPHEMERIS_TYPE": 0, "CLASSIFICATION_TYPE": "U", "NORAD_CAT_ID": 34412, "ELEMENT_SET_NO": 999, "REV_AT_EPOCH": 87644, "BSTAR": 0.001954242, "MEAN_MOTION_DOT": 8.859e-05, "MEAN_MOTION_DDOT": 0}, "tle": {"line1": "1 34412U 93036RD  25346.29289342  .00008859  00000+0  19542-2 0  9996", "line2": "2 34412  73.9485 325.4499 0187151  60.6296 301.3406 14.47125156876442"}}, "geometry": {"type": "Point", "coordinates": [4.274891876248092, 65.76472005515504]}}, {"type": "Feature", "properties": {"norad_id": 34413, "name": "COSMOS 2251 DEB", "group": "cosmos-2251-debris", "lat": -18.442262467000184, "lon": 90.2663476309334, "alt_km": 850.6223494361011, "timestamp": "2025-12-12T18:57:44.523404+00:00", "meta": {"OBJECT_NAME": "COSMOS 2251 DEB", "OBJECT_ID": "1993-036RE", "EPOCH": "2025-12-12T05:17:33.755712", "MEAN_MOTION": 14.29093408, "ECCENTRICITY": 0.00908685, "INCLINATION": 74.031, "RA_OF_ASC_NODE": 265.8209, "ARG_OF_PERICENTER": 342.3849, "MEAN_ANOMALY": 168.2383, "EPHEMERIS_TYPE": 0, "CLASSIFICATION_TYPE": "U", "NORAD_CAT_ID": 34413, "ELEMENT_SET_NO": 999, "REV_AT_EPOCH": 87123, "BSTAR": 0.0024919094, "MEAN_MOTION_DOT": 6.583e-05, "MEAN_MOTION_DDOT": 0}, "tle": {"line1": "1 34413U 93036RE  25346.22052958  .00006583  00000+0  24919-2 0  9997", "line2": "2 34413  74.0310 265.8209 0090868 342.3849 168.2383 14.29093408871230"}}, "geometry": {"type": "Point", "coordinates": [90.2663476309334, -18.442262467000184]}}, {"type": "Feature", "properties": {"norad_id": 34420, "name": "COSMOS 2251 DEB", "group": "cosmos-2251-debris", "lat": -55.600343418807, "lon": 79.14455344054295, "alt_km": 654.2222298526194, "timestamp": "2025-12-12T18:57:44.523415+00:00", "meta": {"OBJECT_NAME": "COSMOS 2251 DEB", "OBJECT_ID": "1993-036RM", "EPOCH": "2025-12-12T03:07:50.776320", "MEAN_MOTION": 14.68295104, "ECCENTRICITY": 0.01066678, "INCLINATION": 74.0334, "RA_OF_ASC_NODE": 105.1374, "ARG_OF_PERICENTER": 226.4253, "MEAN_ANOMALY": 187.9562, "EPHEMERIS_TYPE": 0, "CLASSIFICATION_TYPE": "U", "NORAD_CAT_ID": 34420, "ELEMENT_SET_NO": 999, "REV_AT_EPOCH": 89761, "BSTAR": 0.00040513405, "MEAN_MOTION_DOT": 2.513e-05, "MEAN_MOTION_DDOT": 0}, "tle": {"line1": "1 34420U 93036RM  25346.13044880  .00002513  00000+0  40513-3 0  9998", "line2": "2 34420  74.0334 105.1374 0106667 226.4253 187.9562 14.68295104897616"}}, "geometry": {"type": "Point", "coordinates": [79.14455344054295, -55.600343418807]}}, {"type": "Feature", "properties": {"norad_id": 34425, "name": "COSMOS 2251 DEB", "group": "cosmos-2251-debris", "lat": 24.74700948855206, "lon": 62.01035862464472, "alt_km": 701.1824265646364, "timestamp": "2025-12-12T18:57:44.523424+00:00", "meta": {"OBJECT_NAME": "COSMOS 2251 DEB", "OBJECT_ID": "1993-036RS", "EPOCH": "2025-12-12T07:20:57.375168", "MEAN_MOTION": 14.62126371, "ECCENTRICITY": 0.00248677, "INCLINATION": 74.0201, "RA_OF_ASC_NODE": 55.3472, "ARG_OF_PERICENTER": 181.9603, "MEAN_ANOMALY": 178.147, "EPHEMERIS_TYPE": 0, "CLASSIFICATION_TYPE": "U", "NORAD_CAT_ID": 34425, "ELEMENT_SET_NO": 999, "REV_AT_EPOCH": 88734, "BSTAR": 0.00093625084, "MEAN_MOTION_DOT": 4.701e-05, "MEAN_MOTION_DDOT": 0}, "tle": {"line1": "1 34425U 93036RS  25346.30621962  .00004701  00000+0  93625-3 0  9997", "line2": "2 34425  74.0201  55.3472 0024867 181.9603 178.1470 14.62126371887346"}}, "geometry": {"type": "Point", "coordinates": [62.01035862464472, 24.74700948855206]}}, {"type": "Feature", "properties": {"norad_id": 34429, "name": "COSMOS 2251 DEB", "group": "cosmos-2251-debris", "lat": 72.71649765812667, "lon": -79.61968052524179, "alt_km": 433.9506774600186, "timestamp": "2025-12-12T18:57:44.523435+00:00", "meta": {"OBJECT_NAME": "COSMOS 2251 DEB", "OBJECT_ID": "1993-036RW", "EPOCH": "2025-12-11T22:49:36.139872", "MEAN_MOTION": 15.41156412, "ECCENTRICITY": 0.0007285, "INCLINATION": 73.9701, "RA_OF_ASC_NODE": 169.7275, "ARG_OF_PERICENTER": 11.6809, "MEAN_ANOMALY": 111.3693, "EPHEMERIS_TYPE": 0, "CLASSIFICATION_TYPE": "U", "NORAD_CAT_ID": 34429, "ELEMENT_SET_NO": 999, "REV_AT_EPOCH": 89436, "BSTAR": 0.0055962, "MEAN_MOTION_DOT": 0.00239612, "MEAN_MOTION_DDOT": 0}, "tle": {"line1": "1 34429U 93036RW  25345.95111273  .00239612  00000+0  55962-2 0  9992", "line2": "2 34429  73.9701 169.7275 0007285  11.6809 111.3693 15.41156412894369"}}, "geometry": {"type": "Point", "coordinates": [-79.61968052524179, 72.71649765812667]}}, {"type": "Feature", "properties": {"norad_id": 34430, "name": "COSMOS 2251 DEB", "group": "cosmos-2251-debris", "lat": 15.469239152767125, "lon": 118.73102203467381, "alt_km": 797.6757913026722, "timestamp": "2025-12-12T18:57:44.523445+00:00", "meta": {"OBJECT_NAME": "COSMOS 2251 DEB", "OBJECT_ID": "1993-036RX", "EPOCH": "2025-12-12T04:51:51.591744", "MEAN_MOTION": 14.39630116, "ECCENTRICITY": 0.00603161, "INCLINATION": 74.0523, "RA_OF_ASC_NODE": 304.3531, "ARG_OF_PERICENTER": 14.1131, "MEAN_ANOMALY": 346.1691, "EPHEMERIS_TYPE": 0, "CLASSIFICATION_TYPE": "U", "NORAD_CAT_ID": 34430, "ELEMENT_SET_NO": 999, "REV_AT_EPOCH": 87947, "BSTAR": 0.0008295348, "MEAN_MOTION_DOT": 2.624e-05, "MEAN_MOTION_DDOT": 0}, "tle": {"line1": "1 34430U 93036RX  25346.20268046  .00002624  00000+0  82953-3 0  9996", "line2": "2 34430  74.0523 304.3531 0060316  14.1131 346.1691 14.39630116879472"}}, "geometry": {"type": "Point", "coordinates": [118.73102203467381, 15.469239152767125]}}, {"type": "Feature", "properties": {"norad_id": 34431, "name": "COSMOS 2251 DEB", "group": "cosmos-2251-debris", "lat": 58.48916894812994, "lon": -157.13368365065787, "alt_km": 796.5922115359499, "timestamp": "2025-12-12T18:57:44.523455+00:00", "meta": {"OBJECT_NAME": "COSMOS 2251 DEB", "OBJECT_ID": "1993-036RY", "EPOCH": "2025-12-11T22:30:12.235968", "MEAN_MOTION": 14.28769375, "ECCENTRICITY": 0.0068295, "INCLINATION": 74.0747, "RA_OF_ASC_NODE": 176.6516, "ARG_OF_PERICENTER": 162.5707, "MEAN_ANOMALY": 197.781, "EPHEMERIS_TYPE": 0, "CLASSIFICATION_TYPE": "U", "NORAD_CAT_ID": 34431, "ELEMENT_SET_NO": 999, "REV_AT_EPOCH": 87131, "BSTAR": 0.00096958, "MEAN_MOTION_DOT": 2.479e-05, "MEAN_MOTION_DDOT": 0}, "tle": {"line1": "1 34431U 93036RY  25345.93764162  .00002479  00000+0  96958-3 0  9994", "line2": "2 34431  74.0747 176.6516 0068295 162.5707 197.7810 14.28769375871311"}}, "geometry": {"type": "Point", "coordinates": [-157.13368365065787, 58.48916894812994]}}]}